SENTINEL-6              
1 46984U 20086A   24092.17069801 -.00000048  00000+0  56377-4 0  9990
2 46984  66.0450  11.2331 0007823 271.3400  88.6719 12.80929383157087
